HORYU-2
1 38340U 12025D   15309.88026641  .00001279  00000-0  19988-3 0  9998
2 38340  98.3310 283.6220 0012220  12.1807 347.9694 14.74605051186418
RS-40
1 38735U 12041C   15309.82268928  .00000040  00000-0  21992-3 0  9997
2 38735  82.4744 331.6694 0015819 229.2834 130.6868 12.42570509148508
PROITERES
1 38756U 12047B   15309.82496085  .00000632  00000-0  99537-4 0  9991
2 38756  98.2264  51.5684 0011576 200.4039 159.6701 14.75976753169895
BEESAT-3
1 39134U 13015E   15309.41213470  .00006536  00000-0  37003-3 0  9996
2 39134  64.8727 325.1916 0021885 236.2028 123.7013 15.13656001140066
BEESAT-2
1 39136U 13015G   15309.56489316  .00005654  00000-0  33869-3 0  9994
2 39136  64.8735 328.3361 0022072 234.5004 125.4061 15.11771733140026
ZACUBE-1
1 39417U 13066B   15309.10829226  .00001229  00000-0  16421-3 0  9999
2 39417  97.7138   6.2320 0060969  38.5276 322.0264 14.79999318105471
TRITON-1
1 39427U 13066M   15309.08139008  .00000969  00000-0  16456-3 0  9997
2 39427  97.6981 351.4297 0116770  77.3736 284.0497 14.66873355104527
DELFIN3XT
1 39428U 13066N   15309.20005869  .00001709  00000-0  28721-3 0  9990
2 39428  97.6995 349.6181 0124992  82.7006 278.8386 14.65762058104398
GOMX-1
1 39430U 13066Q   15309.63740137  .00000825  00000-0  15999-3 0  9995
2 39430  97.6939 342.4452 0154390 103.8789 257.9638 14.58278999103990
LO-74
1 39440U 13066AA  15309.40496926  .00000994  00000-0  14774-3 0  9992
2 39440  97.7073   0.6505 0082781  52.0325 308.8326 14.74794283105144
PUCPSAT-1
1 39442U 13066AC  15309.82911327  .00001787  00000-0  19369-3 0  9993
2 39442  97.7254  16.5332 0033122  17.7096 342.5268 14.89046842104943
SPROUT
1 39770U 14029E   15309.10066408  .00003187  00000-0  38572-3 0  9992
2 39770  97.8732  44.0508 0010916 100.4840 259.7647 14.84335905 78534
POPSAT-HIP1
1 40028U 14033U   15309.74869931  .00001385  00000-0  15916-3 0  9992
2 40028  97.9422 210.2407 0015573  78.2594 282.0404 14.87367168 74823
EO-80
1 40032U 14033Y   15309.77458527  .00001577  00000-0  18183-3 0  9997
2 40032  97.9392 209.8009 0013695  75.3281 284.9451 14.87053728 74816
VELOX-1
1 40057U 14034E   15309.88483467  .00001532  00000-0  22902-3 0  9993
2 40057  98.2083  30.2739 0012120 141.1792 219.0288 14.76189928 72782
DAURIA DX 1
1 40071U 14037C   15309.85609599  .00000722  00000-0  10154-3 0  9991
2 40071  98.3463  27.0235 0009310 139.4160 220.7749 14.80567046 71755
UKUBE-1
1 40074U 14037F   15309.84674784  .00001512  00000-0  19524-3 0  9999
2 40074  98.3484  28.2684 0005430 140.9884 219.1715 14.82551998 71825
HODOYOSHI-1
1 40299U 14070B   15309.84461162  .00003432  00000-0  16031-3 0  9992
2 40299  97.4479  29.6085 0013151   6.7237 126.4332 15.20414601 55333
CHUBUSAT-1
1 40300U 14070C   15309.88292801  .00003871  00000-0  18977-3 0  9999
2 40300  97.4445  28.5122 0022183   5.2175  86.0166 15.18516716 55275
QSAT-EOS
1 40301U 14070D   15309.88205873  .00006790  00000-0  32724-3 0  9992
2 40301  97.4400  27.7361 0031107   4.4570  86.5848 15.18619054 55236
TSUBAME
1 40302U 14070E   15309.77173707  .00004021  00000-0  22095-3 0  9996
2 40302  97.4375  25.5322 0042607  10.6901 142.2405 15.13886486 55087
FIREBIRD FU3
1 40377U 15003B   15309.79979217  .00009984  00000-0  47697-3 0  9995
2 40377  99.1018   9.5505 0153230 148.9822 212.0563 15.09437598 41907
FIREBIRD FU4
1 40378U 15003C   15309.73078933  .00010590  00000-0  50503-3 0  9990
2 40378  99.1017   9.4767 0153530 149.1669 211.8685 15.09436843 41893
GRIFEX
1 40379U 15003D   15309.71612835  .00008023  00000-0  39384-3 0  9996
2 40379  99.1036   9.1780 0155591 151.0784 209.9175 15.08360737 41873
LAMBDA-SAT
1 40458U 98067GB  15136.30676273  .20783109  12527-4  14817-2 0  9995
2 40458 051.6075 233.7697 0010355 318.5347 043.1720 16.39926603 21161
NO-84
1 40654U 15025X   15309.56822207  .00021257  00000-0  51512-3 0 01774
2 40654 054.9952 325.4325 0229669 236.1193 121.7858 15.18230444025616
NO-83
1 40655U 15025X   15309.53523872  .00029719  00000-0  69528-3 0 01854
2 40655 054.9962 324.5876 0221968 236.6267 121.3353 15.20237032025620
DEORBITSAIL
1 40719U 15032E   15309.65251827  .00002066  00000-0  31514-3 0  9997
2 40719  98.0380 198.0026 0015550 236.1979 123.7750 14.74881907 17383
NUDT-PHONESAT
1 40900U 15049B   15309.89471634  .00008425  00000-0  46753-3 0  9999
2 40900  97.4494 317.0173 0017884 111.2071 337.4390 15.13856497  7101
XW-2D
1 40907U 15049J   15309.80212380  .00003171  00000-0  18597-3 0  9996
2 40907  97.4527 316.8600 0017349  90.2694 355.8372 15.12348934  7071
XW-2F
1 40910U 15049M   15309.87165313  .00004847  00000-0  28247-3 0  9994
2 40910  97.4564 316.9397 0018646  88.8776 356.6142 15.12306885  6976
XW-2B
1 40911U 15049N   15309.80160508  .00003288  00000-0  19257-3 0  9998
2 40911  97.4577 316.8903 0017231  90.3593 355.9579 15.12376423  6978
DCBB
1 40912U 15049P   15309.88409358  .00005803  00000-0  32114-3 0  9998
2 40912  97.4565 317.0781 0019100  87.8793 357.4607 15.14073341  6999
TW-1C
1 40926U 15051B   15309.66017841  .00015152  00000-0  50936-3 0  9994
2 40926  97.3043 344.4977 0017360 129.5011 350.1556 15.30765150  6344
TW-1A
1 40928U 15051D   15310.03879088  .00048545  00000-0  16387-2 0  9991
2 40928  97.2939 344.8463 0016309 141.7837 276.7743 15.30399078  6407
IO-86
1 40931U 15052B   15308.25397330  .00000981  00000-0  47989-4 0  9998
2 40931   5.9915 125.7285 0013420 155.2820 204.7871 14.76367527  5485
AAUSat-5
1 40948U 98067GZ  15309.80847593  .00074181  00000-0  93469-3 0  9992
2 40948  51.6402  96.7387 0006078 118.6690 241.4914 15.58924927  4862
GomX-3
1 40949U 98067HA  15309.81640160  .00056594  00000-0  73989-3 0  9998
2 40949  51.6416  96.7925 0006884 121.1296 239.0373 15.58053745  4865
LQSat
1 40958U 15057A   15309.70763420  .00000375  00000-0  66481-4 0  9995
2 40958  98.0385  22.2896 0018829 149.1525 211.0796 14.72733066  4341
AO-85
1 40967U 15058D   15309.34512913  .00001833  00000-0  20584-3 0 00315
2 40967 064.7782 207.4152 0217970 273.4912 187.1222 14.74363405003965
